STARLINK-37046          
1 68102U 26044B   26091.16671296 -.01914581  00000+0 -26908-1 0  9995
2 68102  97.2851  52.3660 0001734  89.3682 331.1028 15.59947381  5010
STARLINK-37018          
1 68103U 26044C   26091.16671296 -.01920058  00000+0 -26726-1 0  9990
2 68103  97.2853  52.3714 0001716  90.6663 341.0994 15.60208376  4968
STARLINK-37041          
1 68104U 26044D   26091.16671296 -.01922669  00000+0 -25903-1 0  9997
2 68104  97.2853  52.3785 0001766  91.0984 357.2124 15.61058609  4960
STARLINK-37021          
1 68105U 26044E   26091.16671296 -.01916413  00000+0 -27775-1 0  9997
2 68105  97.2850  52.3702 0001678  95.0889 336.6434 15.59146192  4964
STARLINK-37024          
1 68106U 26044F   26091.16671296 -.01921878  00000+0 -25735-1 0  9993
2 68106  97.2851  52.3847 0001835  92.8360  11.3367 15.61214525  4961
STARLINK-37005          
1 68107U 26044G   26091.16671296 -.01920535  00000+0 -26477-1 0  9997
2 68107  97.2849  52.3741 0001747  91.3496 347.5854 15.60458667  4969
STARLINK-37017          
1 68108U 26044H   26091.16671296 -.01923850  00000+0 -25115-1 0  9999
2 68108  97.2848  52.3892 0001663 100.7921  13.0415 15.61873288  4960
STARLINK-36833          
1 68109U 26044J   26091.16671296 -.01925286  00000+0 -24706-1 0  9990
2 68109  97.2849  52.3936 0001811 100.7597  25.9966 15.62314118  5018
STARLINK-36830          
1 68110U 26044K   26091.16671296 -.01925828  00000+0 -24842-1 0  9995
2 68110  97.2850  52.3920 0001800 101.2522  20.0481 15.62181954  5015
STARLINK-36791          
1 68111U 26044L   26091.16671296 -.01923163  00000+0 -24318-1 0  9994
2 68111  97.2848  52.3995 0001764  95.6869  43.1054 15.62687737  4969
STARLINK-36893          
1 68112U 26044M   26091.16671296 -.01918587  00000+0 -24018-1 0  9996
2 68112  97.2848  52.4024 0001743 103.1412  44.3183 15.62935740  5013
STARLINK-36937          
1 68113U 26044N   26091.16671296 -.01927377  00000+0 -23834-1 0  9999
2 68113  97.2848  52.4065 0001713  98.5711  58.2058 15.63262738  4964
